[{"OBJECT_NAME":"STARLINK-6305","OBJECT_ID":"2023-061W","EPOCH":"2025-08-23T13:02:40.610112","MEAN_MOTION":15.02532271,"ECCENTRICITY":0.00011193,"INCLINATION":43.0021,"RA_OF_ASC_NODE":181.5456,"ARG_OF_PERICENTER":264.7678,"MEAN_ANOMALY":95.3036,"EPHEMERIS_TYPE":0,"CLASSIFICATION_TYPE":"U","NORAD_CAT_ID":56394,"ELEMENT_SET_NO":999,"REV_AT_EPOCH":12709,"BSTAR":6.382976e-6,"MEAN_MOTION_DOT":-1.17e-6,"MEAN_MOTION_DDOT":0},{"OBJECT_NAME":"STARLINK-6273","OBJECT_ID":"2023-061X","EPOCH":"2025-08-23T13:07:28.308288","MEAN_MOTION":15.02532405,"ECCENTRICITY":0.00011549,"INCLINATION":43.0024,"RA_OF_ASC_NODE":181.5671,"ARG_OF_PERICENTER":270.7545,"MEAN_ANOMALY":89.3165,"EPHEMERIS_TYPE":0,"CLASSIFICATION_TYPE":"U","NORAD_CAT_ID":56395,"ELEMENT_SET_NO":999,"REV_AT_EPOCH":12780,"BSTAR":3.201907e-5,"MEAN_MOTION_DOT":2.29e-6,"MEAN_MOTION_DDOT":0},{"OBJECT_NAME":"STARLINK-6302","OBJECT_ID":"2023-061Y","EPOCH":"2025-08-23T12:54:41.059872","MEAN_MOTION":15.02531538,"ECCENTRICITY":9.77e-5,"INCLINATION":43.002,"RA_OF_ASC_NODE":181.503,"ARG_OF_PERICENTER":257.7493,"MEAN_ANOMALY":102.324,"EPHEMERIS_TYPE":0,"CLASSIFICATION_TYPE":"U","NORAD_CAT_ID":56396,"ELEMENT_SET_NO":999,"REV_AT_EPOCH":12222,"BSTAR":-2.8588752e-5,"MEAN_MOTION_DOT":-5.9e-6,"MEAN_MOTION_DDOT":0},{"OBJECT_NAME":"STARLINK-6271","OBJECT_ID":"2023-061Z","EPOCH":"2025-08-23T19:33:35.038368","MEAN_MOTION":15.02532204,"ECCENTRICITY":7.743e-5,"INCLINATION":43.0024,"RA_OF_ASC_NODE":180.1412,"ARG_OF_PERICENTER":264.7184,"MEAN_ANOMALY":95.357,"EPHEMERIS_TYPE":0,"CLASSIFICATION_TYPE":"U","NORAD_CAT_ID":56397,"ELEMENT_SET_NO":999,"REV_AT_EPOCH":12713,"BSTAR":1.4077375e-5,"MEAN_MOTION_DOT":-1.3e-7,"MEAN_MOTION_DDOT":0},{"OBJECT_NAME":"STARLINK-6288","OBJECT_ID":"2023-061AA","EPOCH":"2025-08-23T20:48:32.188608","MEAN_MOTION":15.02538024,"ECCENTRICITY":0.00011893,"INCLINATION":43.0034,"RA_OF_ASC_NODE":179.6726,"ARG_OF_PERICENTER":266.0141,"MEAN_ANOMALY":94.0565,"EPHEMERIS_TYPE":0,"CLASSIFICATION_TYPE":"U","NORAD_CAT_ID":56398,"ELEMENT_SET_NO":999,"REV_AT_EPOCH":12714,"BSTAR":6.035828e-6,"MEAN_MOTION_DOT":-1.22e-6,"MEAN_MOTION_DDOT":0},{"OBJECT_NAME":"STARLINK-6277","OBJECT_ID":"2023-061AB","EPOCH":"2025-08-23T04:59:16.867968","MEAN_MOTION":15.02505894,"ECCENTRICITY":9.776e-5,"INCLINATION":43.0029,"RA_OF_ASC_NODE":183.327,"ARG_OF_PERICENTER":277.587,"MEAN_ANOMALY":82.4862,"EPHEMERIS_TYPE":0,"CLASSIFICATION_TYPE":"U","NORAD_CAT_ID":56399,"ELEMENT_SET_NO":999,"REV_AT_EPOCH":12704,"BSTAR":-0.00022312244,"MEAN_MOTION_DOT":-3.214e-5,"MEAN_MOTION_DDOT":0},{"OBJECT_NAME":"STARLINK-6267","OBJECT_ID":"2023-061AC","EPOCH":"2025-08-23T22:16:15.767328","MEAN_MOTION":15.02535745,"ECCENTRICITY":0.00013189,"INCLINATION":43.0035,"RA_OF_ASC_NODE":179.2689,"ARG_OF_PERICENTER":264.8844,"MEAN_ANOMALY":95.1848,"EPHEMERIS_TYPE":0,"CLASSIFICATION_TYPE":"U","NORAD_CAT_ID":56400,"ELEMENT_SET_NO":999,"REV_AT_EPOCH":12715,"BSTAR":4.8750489e-5,"MEAN_MOTION_DOT":4.55e-6,"MEAN_MOTION_DDOT":0},{"OBJECT_NAME":"STARLINK-6256","OBJECT_ID":"2023-061AD","EPOCH":"2025-08-23T12:53:27.546432","MEAN_MOTION":15.02532932,"ECCENTRICITY":0.00010978,"INCLINATION":43.0023,"RA_OF_ASC_NODE":168.4843,"ARG_OF_PERICENTER":271.7607,"MEAN_ANOMALY":88.311,"EPHEMERIS_TYPE":0,"CLASSIFICATION_TYPE":"U","NORAD_CAT_ID":56401,"ELEMENT_SET_NO":999,"REV_AT_EPOCH":12724,"BSTAR":1.8206793e-5,"MEAN_MOTION_DOT":4.2e-7,"MEAN_MOTION_DDOT":0},{"OBJECT_NAME":"STARLINK-6284","OBJECT_ID":"2023-061AF","EPOCH":"2025-08-23T04:46:28.121376","MEAN_MOTION":15.0252776,"ECCENTRICITY":0.0001271,"INCLINATION":43.0013,"RA_OF_ASC_NODE":183.2503,"ARG_OF_PERICENTER":270.1256,"MEAN_ANOMALY":89.944,"EPHEMERIS_TYPE":0,"CLASSIFICATION_TYPE":"U","NORAD_CAT_ID":56403,"ELEMENT_SET_NO":999,"REV_AT_EPOCH":12704,"BSTAR":-0.00010408847,"MEAN_MOTION_DOT":-1.609e-5,"MEAN_MOTION_DDOT":0},{"OBJECT_NAME":"STARLINK-6287","OBJECT_ID":"2023-061AG","EPOCH":"2025-08-23T22:03:28.683072","MEAN_MOTION":15.02535273,"ECCENTRICITY":0.00011729,"INCLINATION":43.0031,"RA_OF_ASC_NODE":179.1993,"ARG_OF_PERICENTER":266.5872,"MEAN_ANOMALY":93.4837,"EPHEMERIS_TYPE":0,"CLASSIFICATION_TYPE":"U","NORAD_CAT_ID":56404,"ELEMENT_SET_NO":999,"REV_AT_EPOCH":12715,"BSTAR":3.78912e-5,"MEAN_MOTION_DOT":3.08e-6,"MEAN_MOTION_DDOT":0},{"OBJECT_NAME":"STARLINK-6285","OBJECT_ID":"2023-061AH","EPOCH":"2025-08-23T22:11:28.214304","MEAN_MOTION":15.02535412,"ECCENTRICITY":0.00010867,"INCLINATION":43.0028,"RA_OF_ASC_NODE":179.2438,"ARG_OF_PERICENTER":265.0853,"MEAN_ANOMALY":94.9865,"EPHEMERIS_TYPE":0,"CLASSIFICATION_TYPE":"U","NORAD_CAT_ID":56405,"ELEMENT_SET_NO":999,"REV_AT_EPOCH":12715,"BSTAR":4.253269e-5,"MEAN_MOTION_DOT":3.71e-6,"MEAN_MOTION_DDOT":0},{"OBJECT_NAME":"STARLINK-6283","OBJECT_ID":"2023-061AJ","EPOCH":"2025-08-23T21:50:41.803584","MEAN_MOTION":15.02533894,"ECCENTRICITY":0.00011062,"INCLINATION":43.0016,"RA_OF_ASC_NODE":179.1292,"ARG_OF_PERICENTER":269.2624,"MEAN_ANOMALY":90.8091,"EPHEMERIS_TYPE":0,"CLASSIFICATION_TYPE":"U","NORAD_CAT_ID":56406,"ELEMENT_SET_NO":999,"REV_AT_EPOCH":12715,"BSTAR":-7.773092e-6,"MEAN_MOTION_DOT":-3.09e-6,"MEAN_MOTION_DDOT":0},{"OBJECT_NAME":"STARLINK-6282","OBJECT_ID":"2023-061AK","EPOCH":"2025-08-23T22:06:40.782240","MEAN_MOTION":15.02532937,"ECCENTRICITY":9.754e-5,"INCLINATION":43.0025,"RA_OF_ASC_NODE":179.2171,"ARG_OF_PERICENTER":265.9217,"MEAN_ANOMALY":94.1514,"EPHEMERIS_TYPE":0,"CLASSIFICATION_TYPE":"U","NORAD_CAT_ID":56407,"ELEMENT_SET_NO":999,"REV_AT_EPOCH":12715,"BSTAR":3.8312996e-5,"MEAN_MOTION_DOT":3.14e-6,"MEAN_MOTION_DDOT":0},{"OBJECT_NAME":"STARLINK-6289","OBJECT_ID":"2023-061AL","EPOCH":"2025-08-23T13:40:51.910464","MEAN_MOTION":15.02534328,"ECCENTRICITY":7.568e-5,"INCLINATION":43.0034,"RA_OF_ASC_NODE":180.8698,"ARG_OF_PERICENTER":271.1981,"MEAN_ANOMALY":88.8775,"EPHEMERIS_TYPE":0,"CLASSIFICATION_TYPE":"U","NORAD_CAT_ID":56408,"ELEMENT_SET_NO":999,"REV_AT_EPOCH":12710,"BSTAR":3.0040946e-5,"MEAN_MOTION_DOT":2.02e-6,"MEAN_MOTION_DDOT":0},{"OBJECT_NAME":"STARLINK-6241","OBJECT_ID":"2023-061AM","EPOCH":"2025-08-23T20:22:57.613152","MEAN_MOTION":15.02532987,"ECCENTRICITY":9.326e-5,"INCLINATION":43.0029,"RA_OF_ASC_NODE":179.5355,"ARG_OF_PERICENTER":269.0999,"MEAN_ANOMALY":90.9736,"EPHEMERIS_TYPE":0,"CLASSIFICATION_TYPE":"U","NORAD_CAT_ID":56409,"ELEMENT_SET_NO":999,"REV_AT_EPOCH":12714,"BSTAR":6.9728469e-5,"MEAN_MOTION_DOT":7.38e-6,"MEAN_MOTION_DDOT":0},{"OBJECT_NAME":"STARLINK-6281","OBJECT_ID":"2023-061AN","EPOCH":"2025-08-23T13:39:16.291584","MEAN_MOTION":15.0253367,"ECCENTRICITY":8.607e-5,"INCLINATION":43.0026,"RA_OF_ASC_NODE":180.8705,"ARG_OF_PERICENTER":264.6527,"MEAN_ANOMALY":95.4217,"EPHEMERIS_TYPE":0,"CLASSIFICATION_TYPE":"U","NORAD_CAT_ID":56410,"ELEMENT_SET_NO":999,"REV_AT_EPOCH":12710,"BSTAR":2.813682e-6,"MEAN_MOTION_DOT":-1.65e-6,"MEAN_MOTION_DDOT":0}]
