STARLINK-6305           
1 56394U 23061W   25235.54352558 -.00000117  00000+0  63830-5 0  9997
2 56394  43.0021 181.5456 0001119 264.7678  95.3036 15.02532271127094
STARLINK-6273           
1 56395U 23061X   25235.54685542  .00000229  00000+0  32019-4 0  9997
2 56395  43.0024 181.5671 0001154 270.7545  89.3165 15.02532405127800
STARLINK-6302           
1 56396U 23061Y   25235.53797523 -.00000590  00000+0 -28589-4 0  9990
2 56396  43.0020 181.5030 0000977 257.7493 102.3240 15.02531538122222
STARLINK-6271           
1 56397U 23061Z   25235.81498887 -.00000013  00000+0  14077-4 0  9999
2 56397  43.0024 180.1412 0000774 264.7184  95.3570 15.02532204127139
STARLINK-6288           
1 56398U 23061AA  25235.86703922 -.00000122  00000+0  60358-5 0  9999
2 56398  43.0034 179.6726 0001189 266.0141  94.0565 15.02538024127148
STARLINK-6277           
1 56399U 23061AB  25235.20783412 -.00003214  00000+0 -22312-3 0  9992
2 56399  43.0029 183.3270 0000977 277.5870  82.4862 15.02505894127048
STARLINK-6267           
1 56400U 23061AC  25235.92796027  .00000455  00000+0  48750-4 0  9997
2 56400  43.0035 179.2689 0001318 264.8844  95.1848 15.02535745127151
STARLINK-6256           
1 56401U 23061AD  25235.53712438  .00000042  00000+0  18207-4 0  9995
2 56401  43.0023 168.4843 0001097 271.7607  88.3110 15.02532932127240
STARLINK-6284           
1 56403U 23061AF  25235.19893659 -.00001609  00000+0 -10409-3 0  9991
2 56403  43.0013 183.2503 0001271 270.1256  89.9440 15.02527760127040
STARLINK-6287           
1 56404U 23061AG  25235.91908198  .00000308  00000+0  37891-4 0  9995
2 56404  43.0031 179.1993 0001172 266.5872  93.4837 15.02535273127151
STARLINK-6285           
1 56405U 23061AH  25235.92463211  .00000371  00000+0  42533-4 0  9998
2 56405  43.0028 179.2438 0001086 265.0853  94.9865 15.02535412127152
STARLINK-6283           
1 56406U 23061AJ  25235.91020606 -.00000309  00000+0 -77731-5 0  9997
2 56406  43.0016 179.1292 0001106 269.2624  90.8091 15.02533894127150
STARLINK-6282           
1 56407U 23061AK  25235.92130535  .00000314  00000+0  38313-4 0  9998
2 56407  43.0025 179.2171 0000975 265.9217  94.1514 15.02532937127156
STARLINK-6289           
1 56408U 23061AL  25235.57004526  .00000202  00000+0  30041-4 0  9996
2 56408  43.0034 180.8698 0000756 271.1981  88.8775 15.02534328127103
STARLINK-6241           
1 56409U 23061AM  25235.84927793  .00000738  00000+0  69728-4 0  9995
2 56409  43.0029 179.5355 0000932 269.0999  90.9736 15.02532987127148
STARLINK-6281           
1 56410U 23061AN  25235.56893856 -.00000165  00000+0  28137-5 0  9993
2 56410  43.0026 180.8705 0000860 264.6527  95.4217 15.02533670127109
